*******************************************************************************
 Revised: November 5, 2015          134340 Pluto                            999
 
 NOTE: Pre-computed solution PLU055/DE433; a fit to all available observations 
 including New Horizons spacecraft encounter tracking.

 PHYSICAL DATA (updated 2018-Aug-15; Mc= Charon mass, radius is IAU 2009):
  Mass x10^22 (kg)      = 1.307+-0.018    Volume, 10^10 km^3    = 0.697
  GM (planet) km^3/s^2  = 869.33907803    Density (R=1195 km)   = 1.86 g/cm^3
  GM 1-sigma, km^3/s^2  =   1.5           Surface gravity       = 0.611 m/s^2 
  Vol. mean radius (km) = 1188.3+-1.6     Mass ratio (Mc/Mp)    = 0.117
  Sidereal rot. period  = 153.29335198 h  Sid. rot. rat, rad/s  = 0.0000113856
  Mean solar day, h     = 153.2820        Mean orbit velocity   = 4.67 km/s
  Sidereal orbit period = 249.58932 yr    Escape speed, km/s    = 1.21            
                                 Perihelion  Aphelion    Mean
  Solar Constant (W/m^2)         1.56        0.56        0.88
  Maximum Planetary IR (W/m^2)   0.8         0.3         0.5
  Minimum Planetary IR (W/m^2)   0.8         0.3         0.5
*******************************************************************************
 
 
*******************************************************************************
Ephemeris / WWW_USER Sat Dec 14 08:40:31 2019 Pasadena, USA      / Horizons    
*******************************************************************************
Target body name: Pluto (999)                     {source: plu055l_merged}
Center body name: Solar System Barycenter (0)     {source: DE431mx}
Center-site name: BODY CENTER
*******************************************************************************
Start time      : A.D. 2020-Jan-01 00:00:00.0000 TDB
Stop  time      : A.D. 2030-Jan-01 00:00:00.0000 TDB
Step-size       : 1440 minutes
*******************************************************************************
Center geodetic : 0.00000000,0.00000000,0.0000000 {E-lon(deg),Lat(deg),Alt(km)}
Center cylindric: 0.00000000,0.00000000,0.0000000 {E-lon(deg),Dxy(km),Dz(km)}
Center radii    : (undefined)                                                  
Output units    : AU-D                                                         
Output type     : GEOMETRIC cartesian states
Output format   : 3 (position, velocity, LT, range, range-rate)
Reference frame : ICRF/J2000.0                                                 
Coordinate systm: Ecliptic and Mean Equinox of Reference Epoch                 
*******************************************************************************
JDTDB
   X     Y     Z
   VX    VY    VZ
   LT    RG    RR
*******************************************************************************
$$SOE
2460361.500000000 = A.D. 2024-Feb-21 00:00:00.0000 TDB 
 X = 1.734526447071065E+01 Y =-3.029743794543222E+01 Z =-1.775287333140643E+00
 VX= 2.797134436394683E-03 VY= 8.596592973362967E-04 VZ=-9.066973303228388E-04
 LT= 2.018908903209196E-01 RG= 3.495632404489098E+01 RR= 6.888942498280730E-04
2460362.500000000 = A.D. 2024-Feb-22 00:00:00.0000 TDB 
 X = 1.734806045598241E+01 Y =-3.029657556412022E+01 Z =-1.776187932081397E+00
 VX= 2.796457207834667E-03 VY= 8.664395319878614E-04 VZ=-8.951846933626007E-04
 LT= 2.018948510698761E-01 RG= 3.495700982731416E+01 RR= 6.823516747753735E-04
2460363.500000000 = A.D. 2024-Feb-23 00:00:00.0000 TDB 
 X = 1.735086026121897E+01 Y =-3.029570377635676E+01 Z =-1.777080648189032E+00
 VX= 2.804128897380759E-03 VY= 8.769642006202249E-04 VZ=-8.922234035634675E-04
 LT= 2.018987748435113E-01 RG= 3.495768920765892E+01 RR= 6.771429831119262E-04
2460364.500000000 = A.D. 2024-Feb-24 00:00:00.0000 TDB 
 X = 1.735366919435970E+01 Y =-3.029482351741508E+01 Z =-1.777976232272874E+00
 VX= 2.813195688759910E-03 VY= 8.820265900688569E-04 VZ=-9.004479810280186E-04
 LT= 2.019026847068812E-01 RG= 3.495836617951591E+01 RR= 6.779322141344139E-04
2460365.500000000 = A.D. 2024-Feb-25 00:00:00.0000 TDB 
 X = 1.735648430869288E+01 Y =-3.029394309585755E+01 Z =-1.778882863912920E+00
 VX= 2.815458543557609E-03 VY= 8.772982784000406E-04 VZ=-9.125042439903365E-04
 LT= 2.019066162155660E-01 RG= 3.495904689914301E+01 RR= 6.840254009486961E-04
2460366.500000000 = A.D. 2024-Feb-26 00:00:00.0000 TDB 
 X = 1.735929703701341E+01 Y =-3.029307077409804E+01 Z =-1.779798852039732E+00
 VX= 2.808795955502302E-03 VY= 8.671894791298857E-04 VZ=-9.176262704756236E-04
 LT= 2.019105856651140E-01 RG= 3.495973418802690E+01 RR= 6.899961279781966E-04
2460367.500000000 = A.D. 2024-Feb-27 00:00:00.0000 TDB 
 X = 1.736210083640835E+01 Y =-3.029220740060375E+01 Z =-1.780714151950415E+00
 VX= 2.799043784339871E-03 VY= 8.609020520444526E-04 VZ=-9.112386871004590E-04
 LT= 2.019145755750895E-01 RG= 3.496042501952401E+01 RR= 6.905325816129941E-04
2460368.500000000 = A.D. 2024-Feb-28 00:00:00.0000 TDB 
 X = 1.736489701869313E+01 Y =-3.029134565753541E+01 Z =-1.781619322157343E+00
 VX= 2.794790719935695E-03 VY= 8.642311315600306E-04 VZ=-8.990242088198026E-04
 LT= 2.019185502929848E-01 RG= 3.496111322059398E+01 RR= 6.851683428033680E-04
2460369.500000000 = A.D. 2024-Feb-29 00:00:00.0000 TDB 
 X = 1.736769358351053E+01 Y =-3.029047658236567E+01 Z =-1.782513942381609E+00
 VX= 2.799727462613691E-03 VY= 8.743991971487774E-04 VZ=-8.918672585780820E-04
 LT= 2.019224877845304E-01 RG= 3.496179497612130E+01 RR= 6.787010255770683E-04
2460370.500000000 = A.D. 2024-Mar-01 00:00:00.0000 TDB 
 X = 1.737049808563557E+01 Y =-3.028959756434029E+01 Z =-1.783406996659198E+00
 VX= 2.809343567598019E-03 VY= 8.825200136700255E-04 VZ=-8.961476088248523E-04
 LT= 2.019263993126487E-01 RG= 3.496247223622053E+01 RR= 6.769177180042824E-04
2460371.500000000 = A.D. 2024-Mar-02 00:00:00.0000 TDB 
 X = 1.737331088865038E+01 Y =-3.028871467987557E+01 Z =-1.784308857140697E+00
 VX= 2.814948145515296E-03 VY= 8.815329886678368E-04 VZ=-9.080325063655646E-04
 LT= 2.019303193965745E-01 RG= 3.496315097771193E+01 RR= 6.814225225774516E-04
2460372.500000000 = A.D. 2024-Mar-03 00:00:00.0000 TDB 
 X = 1.737612484157290E+01 Y =-3.028783726609015E+01 Z =-1.785222023661869E+00
 VX= 2.811436248372771E-03 VY= 8.725108843597448E-04 VZ=-9.169045996037083E-04
 LT= 2.019342749794770E-01 RG= 3.496383586566058E+01 RR= 6.882047477493802E-04
2460373.500000000 = A.D. 2024-Mar-04 00:00:00.0000 TDB 
 X = 1.737893166415677E+01 Y =-3.028696958894379E+01 Z =-1.786138900373074E+00
 VX= 2.801836311948206E-03 VY= 8.636893317240247E-04 VZ=-9.148436270119470E-04
 LT= 2.019382613945442E-01 RG= 3.496452609203310E+01 RR= 6.912270740243653E-04
2460374.500000000 = A.D. 2024-Mar-05 00:00:00.0000 TDB 
 X = 1.738172932850592E+01 Y =-3.028610704455138E+01 Z =-1.787048574114245E+00
 VX= 2.794600649030684E-03 VY= 8.631211907195492E-04 VZ=-9.036762284604859E-04
 LT= 2.019422465523364E-01 RG= 3.496521610071516E+01 RR= 6.878071204943807E-04
2460375.500000000 = A.D. 2024-Mar-06 00:00:00.0000 TDB 
 X = 1.738452386666039E+01 Y =-3.028524026297300E+01 Z =-1.787946542072221E+00
 VX= 2.796077726292601E-03 VY= 8.715045983198715E-04 VZ=-8.933490971379006E-04
 LT= 2.019461995539346E-01 RG= 3.496590054172484E+01 RR= 6.810067487335069E-04
2460376.500000000 = A.D. 2024-Mar-07 00:00:00.0000 TDB 
 X = 1.738732399584494E+01 Y =-3.028436346303069E+01 Z =-1.788838733357266E+00
 VX= 2.804846375054263E-03 VY= 8.815490906982419E-04 VZ=-8.930692280700536E-04
 LT= 2.019501182621339E-01 RG= 3.496657904501658E+01 RR= 6.769085532988225E-04
2460377.500000000 = A.D. 2024-Mar-08 00:00:00.0000 TDB 
 X = 1.739013333801160E+01 Y =-3.028347961676426E+01 Z =-1.789736224297486E+00
 VX= 2.812972470694586E-03 VY= 8.844759209771532E-04 VZ=-9.030765486202760E-04
 LT= 2.019540312319905E-01 RG= 3.496725655474506E+01 RR= 6.791847279268712E-04
2460378.500000000 = A.D. 2024-Mar-09 00:00:00.0000 TDB 
 X = 1.739294718471311E+01 Y =-3.028259779708879E+01 Z =-1.790645348711609E+00
 VX= 2.813097984935859E-03 VY= 8.778637620538920E-04 VZ=-9.144263567245822E-04
 LT= 2.019579722088973E-01 RG= 3.496793891374396E+01 RR= 6.858134479146381E-04
2460379.500000000 = A.D. 2024-Mar-10 00:00:00.0000 TDB 
 X = 1.739575670418782E+01 Y =-3.028172507744247E+01 Z =-1.791562048874707E+00
 VX= 2.805008127211190E-03 VY= 8.678017562075920E-04 VZ=-9.169854408010578E-04
 LT= 2.019619500035430E-01 RG= 3.496862764753675E+01 RR= 6.908918842815096E-04
2460380.500000000 = A.D. 2024-Mar-11 00:00:00.0000 TDB 
 X = 1.739855681918531E+01 Y =-3.028086022711708E+01 Z =-1.792475502564998E+00
 VX= 2.795809943691207E-03 VY= 8.634487492375617E-04 VZ=-9.084630815821672E-04
 LT= 2.019659406587035E-01 RG= 3.496931860805864E+01 RR= 6.899043519016165E-04
2460381.500000000 = A.D. 2024-Mar-12 00:00:00.0000 TDB 
 X = 1.740135073086951E+01 Y =-3.027999481098986E+01 Z =-1.793377770860721E+00
 VX= 2.793599160522185E-03 VY= 8.688760822959372E-04 VZ=-8.964453995836469E-04
 LT= 2.019699088207857E-01 RG= 3.497000567402475E+01 RR= 6.837431199091585E-04
2460382.500000000 = A.D. 2024-Mar-13 00:00:00.0000 TDB 
 X = 1.740414706852566E+01 Y =-3.027912070767027E+01 Z =-1.794270879026376E+00
 VX= 2.800245196339765E-03 VY= 8.794333564903526E-04 VZ=-8.916438568270643E-04
 LT= 2.019738392689160E-01 RG= 3.497068621002251E+01 RR= 6.779180978576250E-04
2460383.500000000 = A.D. 2024-Mar-14 00:00:00.0000 TDB 
 X = 1.740695219244171E+01 Y =-3.027823735855821E+01 Z =-1.795165017977473E+00
 VX= 2.809710402359479E-03 VY= 8.858851276389827E-04 VZ=-8.983359256074415E-04
 LT= 2.019777505207009E-01 RG= 3.497136342227610E+01 RR= 6.776434599731816E-04
2460384.500000000 = A.D. 2024-Mar-15 00:00:00.0000 TDB 
 X = 1.740976451309843E+01 Y =-3.027735227041157E+01 Z =-1.796069447901202E+00
 VX= 2.813439051358322E-03 VY= 8.826615261168737E-04 VZ=-9.105353208735647E-04
 LT= 2.019816783058719E-01 RG= 3.497204349719676E+01 RR= 6.831754646334807E-04
